STARLINK-1008           
1 44714U 19074B   24285.84815858  .00014253  00000+0  97312-3 0  9998
2 44714  53.0544 333.3442 0001400  90.8865 269.2285 15.06426788271478
STARLINK-1009           
1 44715U 19074C   24285.83709696  .00005219  00000+0  36876-3 0  9990
2 44715  53.0555 333.3947 0001054 100.1490 259.9618 15.06423867271465
STARLINK-1010           
1 44716U 19074D   24285.85553108  .00007977  00000+0  55365-3 0  9995
2 44716  53.0539 333.3084 0001423  84.5909 275.5243 15.06412722271455
STARLINK-1011           
1 44717U 19074E   24285.52194413  .00009834  00000+0  67785-3 0  9993
2 44717  53.0552 354.8063 0001237  90.2052 269.9079 15.06416546270970
STARLINK-1012           
1 44718U 19074F   24285.82603756  .00036165  00000+0  24338-2 0  9995
2 44718  53.0559 333.4433 0002037  72.3690 287.7521 15.06407872271467
STARLINK-1013           
1 44719U 19074G   24285.83341389  .00044054  00000+0  29566-2 0  9992
2 44719  53.0552 333.4055 0002394  80.2693 279.8566 15.06416759271463
STARLINK-1014           
1 44720U 19074H   24285.81731804  .00038428  00000+0  19902-2 0  9998
2 44720  53.0550 326.8598 0003565  28.4524 331.6663 15.15857644271567
STARLINK-1015           
1 44721U 19074J   24285.87400997  .00002989  00000+0  21943-3 0  9993
2 44721  53.0555 333.5720 0001638  99.6293 260.4881 15.06411124271466
STARLINK-1017           
1 44723U 19074L   24285.85921505  .00026647  00000+0  17997-2 0  9996
2 44723  53.0546 333.2948 0001204  92.6387 267.4740 15.06427548271472
STARLINK-1019           
1 44724U 19074M   24285.75600650  .00062130  00000+0  41488-2 0  9990
2 44724  53.0553 333.7568 0001581 101.5191 258.5975 15.06440872271459
STARLINK-1020           
1 44725U 19074N   24285.49615250  .00004657  00000+0  33129-3 0  9998
2 44725  53.0554 354.9250 0000559  90.0396 270.0657 15.06403032270965
STARLINK-1021           
1 44726U 19074P   24285.55328266  .00014590  00000+0  99541-3 0  9991
2 44726  53.0564 334.6657 0001602  93.6067 266.5105 15.06435320271422
STARLINK-1027           
1 44732U 19074V   24285.48509219  .00011897  00000+0  81568-3 0  9996
2 44732  53.0560 354.9820 0001669  73.8941 286.2232 15.06425430270965
STARLINK-1028           
1 44733U 19074W   24285.54959754  .00017623  00000+0  11983-2 0  9993
2 44733  53.0542 334.6808 0001452  79.6307 280.4845 15.06423018271425
STARLINK-1029           
1 44734U 19074X   24285.89608458  .00008011  00000+0  55629-3 0  9991
2 44734  53.0533 253.1287 0002291  90.5407 269.5845 15.06387732272574
STARLINK-1030           
1 44735U 19074Y   24285.49245397  .00034833  00000+0  23426-2 0  9997
2 44735  53.0554 354.9414 0001406 100.5180 259.5968 15.06451378271131
STARLINK-1031           
1 44736U 19074Z   24285.50720173  .00008073  00000+0  55996-3 0  9995
2 44736  53.0546 354.8705 0001237  95.8571 264.2559 15.06420631270975
STARLINK-1032           
1 44737U 19074AA  24285.51826217  .00058817  00000+0  39297-2 0  9999
2 44737  53.0545 354.8201 0001315  92.7929 267.3211 15.06447245270975
STARLINK-1035           
1 44740U 19074AD  24285.51457706 -.00091410  00000+0 -62032-2 0  9997
2 44740  53.0549 354.8478 0001903  45.7137 314.4008 15.06362659270974
STARLINK-1036           
1 44741U 19074AE  24285.65832899  .00021785  00000+0  14759-2 0  9992
2 44741  53.0547 354.1943 0001285  98.1310 261.9824 15.06425202271169
STARLINK-1038           
1 44743U 19074AG  24285.57540085 -.00005871  00000+0 -37577-3 0  9992
2 44743  53.0559  14.5644 0001309 131.6272 228.4829 15.06382046270874
STARLINK-1039           
1 44744U 19074AH  24285.52010984 -.00014189  00000+0 -93793-3 0  9992
2 44744  53.0544  14.8157 0002049  98.9658 261.1563 15.06305109270690
STARLINK-1042           
1 44747U 19074AL  24285.50094626  .00112702  00000+0  45443-2 0  9994
2 44747  53.0520 357.8267 0004685 359.4954   0.6037 15.23937699270945
STARLINK-1043           
1 44748U 19074AM  24285.56435242 -.00038163  00000+0 -25609-2 0  9996
2 44748  53.0548  14.6169 0001462  97.0015 263.1141 15.06342367270707
STARLINK-1046           
1 44751U 19074AQ  24285.51272652  .00014696  00000+0  10023-2 0  9996
2 44751  53.0545  14.8455 0001672  94.8462 265.2718 15.06441593270694
STARLINK-1047           
1 44752U 19074AR  24285.91667824  .00001859  00000+0  13935-3 0  9993
2 44752  53.0549 353.0150 0000938  79.5984 212.4234 15.07577438271206
STARLINK-1048           
1 44753U 19074AS  24285.87028251 -.00011167  00000+0 -73258-3 0  9993
2 44753  53.0544 333.2413 0001438  97.2240 262.8913 15.06368124271473
STARLINK-1052           
1 44757U 19074AW  24285.91667824  .00137386  00000+0  30023-2 0  9999
2 44757  53.0345 313.8567 0006936 314.0072 135.0881 15.43193272271758
STARLINK-1053           
1 44758U 19074AX  24285.56065375  .00010740  00000+0  73838-3 0  9990
2 44758  53.0544  14.7166 0001717  48.4635 311.6501 15.06421989270700
STARLINK-1054           
1 44759U 19074AY  24285.54222056 -.00010632  00000+0 -69516-3 0  9990
2 44759  53.0553  14.7152 0002854 120.0461 240.0811 15.06434904268340
STARLINK-1055           
1 44760U 19074AZ  24285.91667824  .00252589  00000+0  32264-2 0  9995
2 44760  53.0075 291.6826 0007763 346.0631 344.0860 15.57867311272070
STARLINK-1056           
1 44761U 19074BA  24285.53854537 -.00048253  00000+0 -32476-2 0  9991
2 44761  53.0556  14.7314 0001650  86.6027 273.5150 15.06342128270700
STARLINK-1057           
1 44762U 19074BB  24285.47401954  .00074927  00000+0  49779-2 0  9995
2 44762  53.0550 355.0201 0002059  65.0540 295.0663 15.06533438270968
STARLINK-1058           
1 44763U 19074BC  24285.55214862  .00028524  00000+0  16453-2 0  9990
2 44763  53.0549  14.5805 0001007  90.5565 269.5542 15.12165972270701
STARLINK-1059           
1 44764U 19074BD  24285.91667824  .00315618  00000+0  24967-2 0  9993
2 44764  53.0713 243.8039 0005476  47.3486 352.0492 15.69847838272778
STARLINK-1060           
1 44765U 19074BE  24285.48877694  .00008405  00000+0  58229-3 0  9996
2 44765  53.0565 354.9536 0001599  96.7289 263.3882 15.06412103270961
STARLINK-1061           
1 44766U 19074BF  24285.58334491  .00259229  00000+0  13693-1 0  9997
2 44766  53.0532  14.1177 0001133  64.6363 311.6175 15.13826963  5580
STARLINK-1062           
1 44767U 19074BG  24285.53492490  .00017898  00000+0  12166-2 0  9996
2 44767  53.0548  15.3256 0001705  84.2393 275.8790 15.06424186270698
STARLINK-1063           
1 44768U 19074BH  24285.56803481 -.00029927  00000+0 -20009-2 0  9999
2 44768  53.0544  14.5992 0001251  99.6105 260.5025 15.06359445270710
STARLINK-1067           
1 44771U 19074BL  24285.55696631 -.00035788  00000+0 -23972-2 0  9993
2 44771  53.0552  14.6438 0002157  65.1071 295.0142 15.06376751270706
STARLINK-1068           
1 44772U 19074BM  24285.48140108  .00007697  00000+0  53485-3 0  9998
2 44772  53.0555 354.9868 0001596 105.6794 254.4371 15.06415789270961
STARLINK-1073           
1 44914U 20001A   24285.56433719  .00013700  00000+0  93589-3 0  9991
2 44914  53.0509 134.6138 0001395  81.6458 278.4689 15.06438407262352
STARLINK-1084           
1 44915U 20001B   24285.32844895  .00022710  00000+0  15373-2 0  9992
2 44915  53.0543 135.6685 0001980 100.3281 259.7931 15.06430344262323
STARLINK-1098           
1 44917U 20001D   24284.86772004  .00029536  00000+0  19923-2 0  9992
2 44917  53.0518 137.7405 0001483  85.8846 274.2312 15.06421404262256
STARLINK-1102           
1 44920U 20001G   24285.58334491  .00090755  00000+0  19545-2 0  9991
2 44920  53.0483  46.7788 0004000 347.0546 183.8804 15.43867061  5847
STARLINK-1103           
1 44921U 20001H   24285.30906794  .00033278  00000+0  22393-2 0  9995
2 44921  53.0521 135.7160 0001632  90.3727 269.7449 15.06452406262296
STARLINK-1104           
1 44922U 20001J   24285.28053471  .00103554  00000+0  68541-2 0  9998
2 44922  53.0522 135.8896 0001726  84.2191 275.8995 15.06483808262313
STARLINK-1106           
1 44923U 20001K   24285.56104691  .00088216  00000+0  19818-2 0  9991
2 44923  53.0130  66.3110 0005968 211.0244 149.0409 15.42615184263314
STARLINK-1112           
1 44925U 20001M   24285.84080614  .00005251  00000+0  37119-3 0  9995
2 44925  53.0526 133.3730 0001636  94.1492 265.9684 15.06394032262397
STARLINK-1114           
1 44927U 20001P   24285.85185302  .00001979  00000+0  15170-3 0  9994
2 44927  53.0540 133.3229 0001796 105.0297 255.0891 15.06410509262400
STARLINK-1123           
1 44930U 20001S   24285.00409363  .00031462  00000+0  21200-2 0  9991
2 44930  53.0533 137.1339 0001708  91.7306 268.3878 15.06428298262276
STARLINK-1130 (DARKSAT) 
1 44932U 20001U   24285.85553201 -.00049103  00000+0 -33045-2 0  9990
2 44932  53.0538 133.3049 0001844  98.1046 262.0152 15.06352957263637
STARLINK-1144           
1 44933U 20001V   24285.86458469  .00031032  00000+0  19575-2 0  9994
2 44933  53.0526 133.0943 0001649 206.0793 154.0114 15.08869845263692
STARLINK-1071           
1 44934U 20001W   24285.56251094  .00012369  00000+0  84769-3 0  9997
2 44934  53.0532 114.6208 0001424  89.7195 270.3957 15.06406415262630
STARLINK-1079           
1 44937U 20001Z   24284.80873976  .00377284  00000+0  14201-1 0  9997
2 44937  53.0506 101.2475 0005378 122.2321 237.9197 15.24963111262768
STARLINK-1091           
1 44940U 20001AC  24285.52565698  .00015565  00000+0  10611-2 0  9993
2 44940  53.0525 114.7918 0001515 100.1496 259.9664 15.06413491262620
STARLINK-1094           
1 44941U 20001AD  24285.54776427  .00028833  00000+0  19446-2 0  9997
2 44941  53.0546 114.6903 0001402  91.2458 268.8692 15.06438681262639
STARLINK-1096           
1 44942U 20001AE  24285.54384489  .00078539  00000+0  18868-2 0  9996
2 44942  53.0111  20.6388 0003263 267.8146  92.2484 15.40665528263957
STARLINK-1108           
1 44944U 20001AG  24274.83334491  .00350337  00000+0  11537-2 0  9991
2 44944  53.0463 148.3863 0002709 237.5446 308.4958 15.89048160261211
STARLINK-1109           
